RAVAN                   
1 41849U 16067B   18326.80247816  .00001142  00000-0  10188-3 0  9991
2 41849  97.9236  57.9042 0007869   6.2731 353.8588 14.97993931110872
CELTEE 1                
1 41850U 16067C   18326.78896834  .00000298  00000-0  31213-4 0  9994
2 41850  97.9207  57.0468 0008558   4.5115 355.6181 14.96898714110824
OPTICUBE 04             
1 41851U 16067D   18326.83783286 -.00000349  00000-0 -25223-4 0  9990
2 41851  97.9208  56.9636 0008999   5.4401 354.6916 14.96730004110820
AEROCUBE 8D             
1 41852U 16067E   18326.89142277 -.00000047  00000-0  12159-5 0  9995
2 41852  97.9226  56.8485 0009783   6.1346 353.9993 14.96594944110817
AEROCUBE 8C             
1 41853U 16067F   18326.84251900 -.00000024  00000-0  32286-5 0  9993
2 41853  97.9217  56.7509 0010025   5.4488 354.6840 14.96553967110802
PROMETHEUS 2-1          
1 41854U 16067G   18327.23655609 -.00000097  00000-0 -31952-5 0  9992
2 41854  97.9227  57.2037 0010338   3.5951 356.5342 14.96708910110861
PROMETHEUS 2-3          
1 41855U 16067H   18327.43986617  .00000010  00000-0  62320-5 0  9997
2 41855  97.9227  57.4180 0010461   2.9621 357.1660 14.96708169110896
ITF-2                   
1 41932U 98067KU  18327.14688196  .00154840  20692-4  36852-3 0  9995
2 41932  51.6251 232.8625 0005909 135.8716 224.2764 15.96312965105957
INS-1B                  
1 41954U 17008G   18326.77211846  .00001388  00000-0  61208-4 0  9996
2 41954  97.4284  29.2803 0010198 148.6020 211.5828 15.23419890 98144
BGUSAT                  
1 41999U 17008BD  18327.22445596  .00002313  00000-0  94835-4 0  9998
2 41999  97.4339  31.2989 0008951 161.3288 198.8280 15.25254190 97661
DIDO-2                  
1 42000U 17008BE  18326.83045499  .00001006  00000-0  45094-4 0  9997
2 42000  97.4300  29.8382 0008966 164.9042 195.2464 15.23512150 97550
PEASSS                  
1 42015U 17008BV  18327.31241717  .00001162  00000-0  50339-4 0  9999
2 42015  97.4300  30.9724 0006774 166.4371 193.7050 15.24381549 98154
AL-FARABI 1             
1 42016U 17008BW  18327.19153909  .00001558  00000-0  65527-4 0  9995
2 42016  97.4311  31.1796 0006639 166.4564 193.6853 15.24890443 98274
NAYIF-1 (EO-88)         
1 42017U 17008BX  18327.44561667  .00001461  00000-0  61578-4 0  9993
2 42017  97.4308  31.4400 0006641 165.7820 194.3606 15.24917816 98331
HAVELSAT                
1 42700U 98067LH  18327.25712291  .00061631  00000-0  26518-3 0  9995
2 42700  51.6276 254.8239 0005751 129.9173 230.2336 15.84397702 87117
CXBN-2                  
1 42704U 98067LM  18327.20134947  .00077523  00000-0  34144-3 0  9991
2 42704  51.6306 256.7612 0004642 107.6907 252.4603 15.83824706 87006
PHOENIX                 
1 42706U 98067LP  18327.27866920  .00034317  00000-0  20583-3 0  9999
2 42706  51.6294 261.0830 0003199  89.6462 270.4905 15.77443834 86945
X-CUBESAT               
1 42707U 98067LQ  18327.24135619  .00081649  00000-0  30583-3 0  9992
2 42707  51.6280 253.1137 0004880 116.3124 243.8382 15.87162455 87036
QBEE50-LTU-OC           
1 42708U 98067LR  18327.27956759  .00067104  00000-0  29325-3 0  9994
2 42708  51.6285 255.7451 0004145 118.0497 242.0925 15.84048721 86966
ALTAIR PATHFINDER       
1 42711U 98067LS  18327.47302900  .00018488  00000-0  15873-3 0  9997
2 42711  51.6348 274.4938 0004727  73.4584 286.6932 15.69417405 86442
SHARC                   
1 42712U 98067LT  18327.31684728  .00039633  00000-0  28105-3 0  9999
2 42712  51.6351 275.0100 0004351  85.7838 274.3658 15.73518352 86667
ZA-AEROSAT              
1 42713U 98067LU  18327.26403571  .00032738  00000-0  21056-3 0  9996
2 42713  51.6345 265.4982 0003927  85.4090 274.7358 15.75877447 86540
CSUNSAT 1               
1 42715U 98067LW  18327.24465316  .00038913  00000-0  23258-3 0  9998
2 42715  51.6348 263.8806 0005166  84.4027 275.7562 15.77450271 86562
SPACECUBE               
1 42717U 98067LY  18327.25738984  .00060936  00000-0  26956-3 0  9993
2 42717  51.6241 256.2609 0005165 125.8548 234.2935 15.83823031 86031
HOOPOE                  
1 42718U 98067LZ  18327.24713499  .00215444  29727-4  48988-3 0  9993
2 42718  51.6232 247.0641 0006416 140.3240 219.8239 15.97023807 86154
NJUST-1                 
1 42722U 98067MB  18327.46968959  .00033444  00000-0  23272-3 0  9991
2 42722  51.6358 267.4437 0006561 107.4975 357.6882 15.74029978 85601
UNSW-ECO                
1 42723U 98067MC  18327.61629797  .00562959  17128-3  62946-3 0  9994
2 42723  51.6392 242.1352 0007040 154.2213 205.9217 16.08762811 85935
LILACSAT-1              
1 42725U 98067ME  18327.37392571  .00061237  00000-0  31876-3 0  9995
2 42725  51.6368 260.7830 0006002 106.5210 341.5743 15.80316549 85596
NSIGHT-1                
1 42726U 98067MF  18327.39313333  .00007610  00000-0  82007-4 0  9995
2 42726  51.6385 283.0908 0005970 105.0029 255.1627 15.64804897 85305
SNUSAT-1                
1 42727U 98067MG  18327.31391104  .00047651  00000-0  25217-3 0  9998
2 42727  51.6319 261.2326 0006822  97.2718 262.9059 15.80052155 85540
I-INSPIRE II            
1 42731U 98067ML  18327.79853591  .03690740  12102-4  75572-3 0  9993
2 42731  51.6222 237.8868 0006162 206.9337 153.0903 16.30362120 85787
POLYITAN-2-SAU          
1 42732U 98067MM  18327.27748151  .00076848  00000-0  29421-3 0  9998
2 42732  51.6297 254.1789 0006389 101.9653 258.2068 15.86726534 85525
SNUSAT-1B               
1 42733U 98067MN  18327.04502433  .00066084  00000-0  31823-3 0  9995
2 42733  51.6286 260.1873 0006575  93.8962 266.2793 15.81969846 85427
BEEAGLESAT              
1 42736U 98067MR  18327.26437121  .00040497  00000-0  23338-3 0  9995
2 42736  51.6317 263.2057 0006760 110.4104 249.7624 15.78237402 85468
UCLSAT                  
1 42765U 17036A   18326.84809620  .00001342  00000-0  61330-4 0  9995
2 42765  97.3819  24.0002 0010322 235.4969 124.5294 15.22237078 78848
LITUANICASAT-2          
1 42768U 17036D   18327.46948015  .00001867  00000-0  84664-4 0  9996
2 42768  97.3841  24.1641 0014431 223.4153 136.5948 15.21990258 78780
AALTO-1                 
1 42775U 17036L   18326.85917109  .00000750  00000-0  36888-4 0  9991
2 42775  97.3808  23.2054 0012991 224.1956 135.8243 15.21002414 78617
URSA MAIOR              
1 42776U 17036M   18327.16520372  .00000899  00000-0  43451-4 0  9997
2 42776  97.3815  23.5926 0012839 223.0064 137.0169 15.21109401 78666
COMPASS 2               
1 42777U 17036N   18326.78861032  .00001683  00000-0  76128-4 0  9995
2 42777  97.3844  23.9018 0011622 226.6104 133.4166 15.22236209 78630
DIAMOND RED             
1 42783U 17036U   18327.15386674  .00001036  00000-0  48653-4 0  9992
2 42783  97.3818  24.0575 0010974 234.7514 125.2696 15.21782776 78688
PEGASUS                 
1 42784U 17036V   18326.84051351  .00001204  00000-0  55681-4 0  9995
2 42784  97.3822  23.8772 0010868 235.8714 124.1492 15.22024679 78646
DIAMOND GREEN           
1 42785U 17036W   18327.15264360  .00001048  00000-0  49211-4 0  9995
2 42785  97.3820  24.0742 0010860 235.4363 124.5849 15.21782016 78671
DIAMOND BLUE            
1 42786U 17036X   18327.15170899  .00001036  00000-0  48655-4 0  9997
2 42786  97.3820  24.0728 0010700 235.6138 124.4087 15.21784257 78673
NUDTSAT                 
1 42787U 17036Y   18327.41359956  .00001678  00000-0  74811-4 0  9995
2 42787  97.3852  24.8191 0010038 242.7089 117.3129 15.22765945 78592
SUCHAI                  
1 42788U 17036Z   18327.09534172  .00001375  00000-0  62538-4 0  9992
2 42788  97.3823  24.3007 0010495 234.2072 125.8190 15.22356731 78767
SKCUBE                  
1 42789U 17036AA  18326.83712876  .00001317  00000-0  60181-4 0  9991
2 42789  97.3821  24.0247 0010330 235.1816 124.8449 15.22290941 78646
VZLUSAT-1               
1 42790U 17036AB  18326.94128858  .00001730  00000-0  77016-4 0  9990
2 42790  97.3829  24.3576 0009975 234.3174 125.7135 15.22775069 78679
ROBUSTA-1B              
1 42792U 17036AD  18326.92145318  .00001314  00000-0  59744-4 0  9996
2 42792  97.3821  24.2042 0009895 235.6596 124.3705 15.22449513 78673
CICERO 6                
1 42793U 17036AE  18326.93747865  .00000967  00000-0  45111-4 0  9999
2 42793  97.3808  24.1471 0009048 236.9534 123.0834 15.22195565 78742
D-SAT                   
1 42794U 17036AF  18326.83639836  .00000355  00000-0  36041-4 0  9990
2 42794  97.5711  15.3256 0128266 113.9375 247.5339 14.90972119 77363
TOKI                    
1 42820U 98067MU  18326.93275578  .00043125  00000-0  26331-3 0  9995
2 42820  51.6339 268.5200 0004243  83.3452 276.8031 15.76924911 78845
MAZAALAI (NUMSAT-1)     
1 42822U 98067MW  18327.32348182  .00038990  00000-0  24460-3 0  9998
2 42822  51.6351 267.3944 0004499  84.5218 275.6295 15.76355400 78850
BRAC ONNESHA            
1 42823U 98067MX  18326.73183504  .00044325  00000-0  27455-3 0  9994
2 42823  51.6310 270.2154 0006035  81.6625 278.5059 15.76575073 78760
NIGERIAEDUSAT-1         
1 42824U 98067MY  18326.91350135  .00042028  00000-0  26566-3 0  9991
2 42824  51.6356 269.9596 0006256  86.5618 273.6097 15.76135827 78809
CORVUS BC2              
1 42846U 17042X   18327.16798132  .00000025  00000-0  78259-5 0  9999
2 42846  97.5831 224.1641 0010508  34.3913 325.7985 14.91887217 74071
CORVUS BC1              
1 42847U 17042Y   18327.20217028  .00000359  00000-0  40731-4 0  9998
2 42847  97.5831 224.2702 0010112  33.9338 326.2527 14.91986865 74075
SILU-1 (SILKROAD 1)     
1 42903U 17021F   18327.54323205  .00050118  00000-0  23900-3 0  9996
2 42903  42.7747  76.8066 0015674 350.6116  73.9375 15.81838964 75075
MIRATA                  
1 43015U 17073C   18327.08458603  .00000960  00000-0  79979-4 0  9996
2 43015  97.7116 251.5051 0258196 113.9559 248.8921 14.78492969 54618
MAKERSAT 0              
1 43016U 17073D   18327.34462540  .00000594  00000-0  51228-4 0  9991
2 43016  97.7148 251.9217 0259975 113.2496 249.6315 14.78392174 54647
